start=new Date('2021-12-30T00:00:00.000Z').valueOf();
sats=[{"MEAN_MOTION_DOT":"-0.00000766","TIME_SYSTEM":"UTC","EPHEMERIS_TYPE":"0","MEAN_MOTION":"15.06396668","NORAD_CAT_ID":"46553","RCS_SIZE":"LARGE","MEAN_MOTION_DDOT":"0.0000000000000","COUNTRY_CODE":"US","ELEMENT_SET_NO":"999","OBJECT_NAME":"STARLINK-1664","DECAY_DATE":null,"ARG_OF_PERICENTER":"87.8752","MEAN_ANOMALY":"272.2510","PERIAPSIS":"545.569","EPOCH":"2021-12-29T21:04:30.787104","GP_ID":"192743930","ECCENTRICITY":"0.00023900","REF_FRAME":"TEME","OBJECT_TYPE":"PAYLOAD","FILE":"3255236","TLE_LINE2":"2 46553  53.0534 178.7022 0002390  87.8752 272.2510 15.06396668 69197","SITE":"AFETR","LAUNCH_DATE":"2020-10-06","RA_OF_ASC_NODE":"178.7022","MEAN_ELEMENT_THEORY":"SGP4","PERIOD":"95.592","REV_AT_EPOCH":"6919","OBJECT_ID":"2020-070X","TLE_LINE1":"1 46553U 20070X   21363.87813411 -.00000766  00000-0 -32530-4 0  9998","BSTAR":"-0.00003253000000","CENTER_NAME":"EARTH","SEMIMAJOR_AXIS":"6925.359","INCLINATION":"53.0534","CLASSIFICATION_TYPE":"U","APOAPSIS":"548.879"},{"TIME_SYSTEM":"UTC","MEAN_MOTION_DOT":"0.00001423","MEAN_MOTION":"15.06402341","EPHEMERIS_TYPE":"0","RCS_SIZE":"LARGE","NORAD_CAT_ID":"46554","MEAN_MOTION_DDOT":"0.0000000000000","ELEMENT_SET_NO":"999","COUNTRY_CODE":"US","OBJECT_NAME":"STARLINK-1671","DECAY_DATE":null,"ARG_OF_PERICENTER":"85.3943","MEAN_ANOMALY":"274.7335","PERIAPSIS":"545.449","EPOCH":"2021-12-29T22:20:50.082144","GP_ID":"192743681","ECCENTRICITY":"0.00025380","REF_FRAME":"TEME","OBJECT_TYPE":"PAYLOAD","TLE_LINE2":"2 46554  53.0528 193.4613 0002538  85.3943 274.7335 15.06402341 68995","FILE":"3255236","SITE":"AFETR","LAUNCH_DATE":"2020-10-06","RA_OF_ASC_NODE":"193.4613","MEAN_ELEMENT_THEORY":"SGP4","PERIOD":"95.592","REV_AT_EPOCH":"6899","OBJECT_ID":"2020-070Y","TLE_LINE1":"1 46554U 20070Y   21363.93113521  .00001423  00000-0  11441-3 0  9997","CENTER_NAME":"EARTH","BSTAR":"0.00011441000000","SEMIMAJOR_AXIS":"6925.341","INCLINATION":"53.0528","CLASSIFICATION_TYPE":"U","APOAPSIS":"548.964"},{"SEMIMAJOR_AXIS":"6925.355","INCLINATION":"53.0533","APOAPSIS":"548.728","CLASSIFICATION_TYPE":"U","LAUNCH_DATE":"2020-10-06","SITE":"AFETR","RA_OF_ASC_NODE":"208.7996","OBJECT_ID":"2020-070AA","TLE_LINE1":"1 46556U 20070AA  21363.85788709  .00004581  00000-0  32629-3 0  9995","MEAN_ELEMENT_THEORY":"SGP4","REV_AT_EPOCH":"6877","PERIOD":"95.592","CENTER_NAME":"EARTH","BSTAR":"0.00032629000000","PERIAPSIS":"545.711","ECCENTRICITY":"0.00021780","GP_ID":"192744430","EPOCH":"2021-12-29T20:35:21.444576","OBJECT_TYPE":"PAYLOAD","REF_FRAME":"TEME","TLE_LINE2":"2 46556  53.0533 208.7996 0002178  71.4498 288.6727 15.06397976 68770","FILE":"3255236","RCS_SIZE":"LARGE","NORAD_CAT_ID":"46556","TIME_SYSTEM":"UTC","MEAN_MOTION_DOT":"0.00004581","MEAN_MOTION":"15.06397976","EPHEMERIS_TYPE":"0","COUNTRY_CODE":"US","ELEMENT_SET_NO":"999","MEAN_MOTION_DDOT":"0.0000000000000","OBJECT_NAME":"STARLINK-1676","MEAN_ANOMALY":"288.6727","DECAY_DATE":null,"ARG_OF_PERICENTER":"71.4498"},{"INCLINATION":"53.0539","SEMIMAJOR_AXIS":"6925.352","APOAPSIS":"548.929","CLASSIFICATION_TYPE":"U","TLE_LINE1":"1 46557U 20070AB  21363.90164652  .00000984  00000-0  84961-4 0  9997","OBJECT_ID":"2020-070AB","REV_AT_EPOCH":"6899","PERIOD":"95.592","MEAN_ELEMENT_THEORY":"SGP4","CENTER_NAME":"EARTH","BSTAR":"0.00008496100000","LAUNCH_DATE":"2020-10-06","SITE":"AFETR","RA_OF_ASC_NODE":"193.5962","OBJECT_TYPE":"PAYLOAD","REF_FRAME":"TEME","FILE":"3255236","TLE_LINE2":"2 46557  53.0539 193.5962 0002473  83.8561 276.2710 15.06398932 68999","PERIAPSIS":"545.504","ECCENTRICITY":"0.00024730","GP_ID":"192744682","EPOCH":"2021-12-29T21:38:22.259328","OBJECT_NAME":"STARLINK-1679","MEAN_ANOMALY":"276.2710","ARG_OF_PERICENTER":"83.8561","DECAY_DATE":null,"NORAD_CAT_ID":"46557","RCS_SIZE":"LARGE","EPHEMERIS_TYPE":"0","MEAN_MOTION":"15.06398932","TIME_SYSTEM":"UTC","MEAN_MOTION_DOT":"0.00000984","COUNTRY_CODE":"US","ELEMENT_SET_NO":"999","MEAN_MOTION_DDOT":"0.0000000000000"},{"INCLINATION":"53.0517","SEMIMAJOR_AXIS":"6925.361","APOAPSIS":"548.752","CLASSIFICATION_TYPE":"U","TLE_LINE1":"1 46558U 20070AC  21363.84267252 -.00000155  00000-0  85166-5 0  9991","OBJECT_ID":"2020-070AC","PERIOD":"95.592","REV_AT_EPOCH":"6895","MEAN_ELEMENT_THEORY":"SGP4","CENTER_NAME":"EARTH","BSTAR":"0.00000851660000","SITE":"AFETR","LAUNCH_DATE":"2020-10-06","RA_OF_ASC_NODE":"193.8567","OBJECT_TYPE":"PAYLOAD","REF_FRAME":"TEME","TLE_LINE2":"2 46558  53.0517 193.8567 0002204  79.7867 280.3371 15.06396035 68952","FILE":"3255236","PERIAPSIS":"545.699","ECCENTRICITY":"0.00022040","GP_ID":"192743430","EPOCH":"2021-12-29T20:13:26.905728","OBJECT_NAME":"STARLINK-1680","MEAN_ANOMALY":"280.3371","ARG_OF_PERICENTER":"79.7867","DECAY_DATE":null,"NORAD_CAT_ID":"46558","RCS_SIZE":"LARGE","EPHEMERIS_TYPE":"0","MEAN_MOTION":"15.06396035","TIME_SYSTEM":"UTC","MEAN_MOTION_DOT":"-0.00000155","ELEMENT_SET_NO":"999","COUNTRY_CODE":"US","MEAN_MOTION_DDOT":"0.0000000000000"},{"MEAN_ELEMENT_THEORY":"SGP4","REV_AT_EPOCH":"6919","PERIOD":"95.592","OBJECT_ID":"2020-070AD","TLE_LINE1":"1 46559U 20070AD  21363.89751296  .00002403  00000-0  18019-3 0  9991","BSTAR":"0.00018019000000","CENTER_NAME":"EARTH","SITE":"AFETR","LAUNCH_DATE":"2020-10-06","RA_OF_ASC_NODE":"178.6098","SEMIMAJOR_AXIS":"6925.340","INCLINATION":"53.0526","CLASSIFICATION_TYPE":"U","APOAPSIS":"548.804","OBJECT_NAME":"STARLINK-1681","DECAY_DATE":null,"ARG_OF_PERICENTER":"87.3080","MEAN_ANOMALY":"272.8173","TIME_SYSTEM":"UTC","MEAN_MOTION_DOT":"0.00002403","MEAN_MOTION":"15.06402866","EPHEMERIS_TYPE":"0","NORAD_CAT_ID":"46559","RCS_SIZE":"LARGE","MEAN_MOTION_DDOT":"0.0000000000000","COUNTRY_CODE":"US","ELEMENT_SET_NO":"999","REF_FRAME":"TEME","OBJECT_TYPE":"PAYLOAD","FILE":"3255236","TLE_LINE2":"2 46559  53.0526 178.6098 0002309  87.3080 272.8173 15.06402866 69194","PERIAPSIS":"545.606","EPOCH":"2021-12-29T21:32:25.119744","GP_ID":"192744182","ECCENTRICITY":"0.00023090"},{"NORAD_CAT_ID":"46560","RCS_SIZE":"LARGE","MEAN_MOTION":"15.06398296","EPHEMERIS_TYPE":"0","MEAN_MOTION_DOT":"-0.00000100","TIME_SYSTEM":"UTC","COUNTRY_CODE":"US","ELEMENT_SET_NO":"999","MEAN_MOTION_DDOT":"0.0000000000000","OBJECT_NAME":"STARLINK-1706","MEAN_ANOMALY":"287.8920","ARG_OF_PERICENTER":"72.2328","DECAY_DATE":null,"PERIAPSIS":"545.573","ECCENTRICITY":"0.00023760","EPOCH":"2021-12-29T22:10:13.404000","GP_ID":"192744931","OBJECT_TYPE":"PAYLOAD","REF_FRAME":"TEME","FILE":"3255236","TLE_LINE2":"2 46560  53.0523 193.5005 0002376  72.2328 287.8920 15.06398296 68993","LAUNCH_DATE":"2020-10-06","SITE":"AFETR","RA_OF_ASC_NODE":"193.5005","TLE_LINE1":"1 46560U 20070AE  21363.92376625 -.00000100  00000-0  12191-4 0  9995","OBJECT_ID":"2020-070AE","PERIOD":"95.592","REV_AT_EPOCH":"6899","MEAN_ELEMENT_THEORY":"SGP4","CENTER_NAME":"EARTH","BSTAR":"0.00001219100000","INCLINATION":"53.0523","SEMIMAJOR_AXIS":"6925.354","APOAPSIS":"548.864","CLASSIFICATION_TYPE":"U"},{"TLE_LINE1":"1 46561U 20070AF  21363.87216539  .00001246  00000-0  10259-3 0  9990","OBJECT_ID":"2020-070AF","REV_AT_EPOCH":"6898","PERIOD":"95.592","MEAN_ELEMENT_THEORY":"SGP4","BSTAR":"0.00010259000000","CENTER_NAME":"EARTH","LAUNCH_DATE":"2020-10-06","SITE":"AFETR","RA_OF_ASC_NODE":"193.7343","INCLINATION":"53.0539","SEMIMAJOR_AXIS":"6925.356","APOAPSIS":"548.856","CLASSIFICATION_TYPE":"U","OBJECT_NAME":"STARLINK-1709","MEAN_ANOMALY":"276.7491","ARG_OF_PERICENTER":"83.3767","DECAY_DATE":null,"RCS_SIZE":"LARGE","NORAD_CAT_ID":"46561","MEAN_MOTION":"15.06397670","EPHEMERIS_TYPE":"0","TIME_SYSTEM":"UTC","MEAN_MOTION_DOT":"0.00001246","COUNTRY_CODE":"US","ELEMENT_SET_NO":"999","MEAN_MOTION_DDOT":"0.0000000000000","OBJECT_TYPE":"PAYLOAD","REF_FRAME":"TEME","FILE":"3255236","TLE_LINE2":"2 46561  53.0539 193.7343 0002362  83.3767 276.7491 15.06397670 68987","PERIAPSIS":"545.585","ECCENTRICITY":"0.00023620","GP_ID":"192745183","EPOCH":"2021-12-29T20:55:55.089696"},{"RA_OF_ASC_NODE":"188.7204","LAUNCH_DATE":"2020-10-06","SITE":"AFETR","CENTER_NAME":"EARTH","BSTAR":"0.00003690200000","REV_AT_EPOCH":"6905","PERIOD":"95.592","MEAN_ELEMENT_THEORY":"SGP4","TLE_LINE1":"1 46562U 20070AG  21363.87447315  .00000268  00000-0  36902-4 0  9996","OBJECT_ID":"2020-070AG","CLASSIFICATION_TYPE":"U","APOAPSIS":"549.096","INCLINATION":"53.0528","SEMIMAJOR_AXIS":"6925.360","MEAN_MOTION_DDOT":"0.0000000000000","COUNTRY_CODE":"US","ELEMENT_SET_NO":"999","MEAN_MOTION":"15.06396308","EPHEMERIS_TYPE":"0","MEAN_MOTION_DOT":"0.00000268","TIME_SYSTEM":"UTC","NORAD_CAT_ID":"46562","RCS_SIZE":"LARGE","ARG_OF_PERICENTER":"80.0815","DECAY_DATE":null,"MEAN_ANOMALY":"280.0478","OBJECT_NAME":"STARLINK-1714","EPOCH":"2021-12-29T20:59:14.480160","GP_ID":"192743931","ECCENTRICITY":"0.00027020","PERIAPSIS":"545.354","FILE":"3255236","TLE_LINE2":"2 46562  53.0528 188.7204 0002702  80.0815 280.0478 15.06396308 69051","REF_FRAME":"TEME","OBJECT_TYPE":"PAYLOAD"},{"RA_OF_ASC_NODE":"188.4868","SITE":"AFETR","LAUNCH_DATE":"2020-10-06","BSTAR":"0.00024174000000","CENTER_NAME":"EARTH","MEAN_ELEMENT_THEORY":"SGP4","REV_AT_EPOCH":"6906","PERIOD":"95.592","OBJECT_ID":"2020-070AH","TLE_LINE1":"1 46563U 20070AH  21363.92239736  .00003321  00000-0  24174-3 0  9999","CLASSIFICATION_TYPE":"U","APOAPSIS":"548.661","SEMIMAJOR_AXIS":"6925.331","INCLINATION":"53.0548","MEAN_MOTION_DDOT":"0.0000000000000","ELEMENT_SET_NO":"999","COUNTRY_CODE":"US","TIME_SYSTEM":"UTC","MEAN_MOTION_DOT":"0.00003321","MEAN_MOTION":"15.06405728","EPHEMERIS_TYPE":"0","NORAD_CAT_ID":"46563","RCS_SIZE":"LARGE","DECAY_DATE":null,"ARG_OF_PERICENTER":"82.2061","MEAN_ANOMALY":"277.9169","OBJECT_NAME":"STARLINK-1730","EPOCH":"2021-12-29T22:08:15.131904","GP_ID":"192743682","ECCENTRICITY":"0.00021150","PERIAPSIS":"545.731","FILE":"3255236","TLE_LINE2":"2 46563  53.0548 188.4868 0002115  82.2061 277.9169 15.06405728 69062","REF_FRAME":"TEME","OBJECT_TYPE":"PAYLOAD"}];
